STARLINK-36708          
1 67713U 26025W   26050.16668981 -.01507190  67165-3 -37056-2 0  9993
2 67713  97.2728 160.7930 0001486  70.5139 216.2405 15.96145564  2931
STARLINK-36702          
1 67714U 26025X   26050.16668981 -.01517903  67875-3 -37820-2 0  9994
2 67714  97.2725 160.7904 0001514  67.9175 213.1199 15.95898849  2668
STARLINK-36718          
1 67715U 26025Y   26050.16668981 -.01512498  68039-3 -35997-2 0  9995
2 67715  97.2732 160.7992 0001260  78.4606 221.8363 15.96748077  2878
STARLINK-36715          
1 67716U 26025Z   26050.16668981 -.01504230  67147-3 -36353-2 0  9997
2 67716  97.2728 160.7962 0001376  69.8943 224.0340 15.96463579  2935
STARLINK-36385          
1 67717U 26025AA  26050.16668981 -.01525969  68331-3 -38634-2 0  9990
2 67717  97.2728 160.7879 0001514  72.4483 201.7331 15.95601738  2938
CZ-2F DEB               
1 67718U 26024E   26050.15377259  .00213734  00000+0  42326-2 0  9993
2 67718  50.3132 109.2717 0258221 207.1240 151.6029 15.17432193  1818
CZ-2F DEB               
1 67719U 26024F   26050.17119188  .00155669  00000+0  39696-2 0  9999
2 67719  49.7903 110.6554 0331660 197.2725 161.6710 14.97847495  1469
CZ-2F DEB               
1 67720U 26024G   26050.19262737  .00157964  00000+0  41320-2 0  9999
2 67720  49.8297 110.7923 0342373 193.9036 165.2292 14.95189416  1780
2026-027A               
1 67746U 26027A   26050.17442857  .00008110  00000+0  40947-3 0  9994
2 67746  97.4883 179.3909 0009252 263.5855  96.4325 15.17326836  1058
2026-027B               
1 67747U 26027B   26050.17396782  .00008055  00000+0  40551-3 0  9999
2 67747  97.4878 179.3910 0009413 266.1875  93.8282 15.17428122  1059
2026-027C               
1 67748U 26027C   26050.17334814  .00005788  00000+0  29143-3 0  9992
2 67748  97.4890 179.3930 0009794 269.2593  90.7519 15.17546717  1059
2026-027D               
1 67749U 26027D   26050.17265534  .00009481  00000+0  47256-3 0  9994
2 67749  97.4885 179.3936 0009652 273.7439  86.2691 15.17726247  1006
2026-027E               
1 67750U 26027E   26050.17259746  .00008160  00000+0  40725-3 0  9991
2 67750  97.4895 179.3947 0008780 275.5674  84.4558 15.17731821  1054
2026-027F               
1 67751U 26027F   26050.17231546  .00013485  00000+0  66827-3 0  9997
2 67751  97.4897 179.3955 0009948 274.4642  85.5456 15.17831963  1053
2026-027G               
1 67752U 26027G   26050.17221677  .00008811  00000+0  43831-3 0  9999
2 67752  97.4890 179.3948 0009112 277.6438  82.3761 15.17819719  1059
2026-027H               
1 67753U 26027H   26050.12264002  .00333866  23170-5  62732-3 0  9995
2 67753  97.5140 179.8239 0265129 314.0992  43.8714 15.60431365  1077
2026-027J               
1 67754U 26027J   26050.17418807  .00758026  23575-5  12943-2 0  9991
2 67754  97.5112 179.9092 0243691 313.2662  44.8487 15.66214444  1026
2026-028A               
1 67756U 26028A   26049.27381049 -.00000334  00000+0  00000+0 0  9993
2 67756   0.5146 288.1339 0045370  50.2760  21.3739  1.00850594    65
CREW DRAGON 12          
1 67796U 26031A   26049.53796808  .00009650  00000+0  18483-3 0  9990
2 67796  51.6325 167.0200 0010945 111.2724 248.9434 15.48685385   784
